JILIN-1 GAOFEN 3A       
1 44312U 19032C   26068.74542089  .00016264  00000+0  55381-3 0  9993
2 44312  44.9746 183.2861 0002618 111.2900 248.8263 15.30271310372592
STARLINK-30283          
1 57680U 23124T   26068.68013718  .00001737  00000+0  70780-4 0  9997
2 57680  53.1595 207.0334 0001345  88.9333 271.1822 15.30196514143569
